
# Worst residual: 163.16 km
# MJD 60592.000000 (2024 Oct  9  0:00)
A118n8v = A1188rT = A1188rU
1 79918U 24999ZZG 24283.49919926  .00000000  00000-0  00000-0 0 24453
2 79918 020.2504 331.9181 6540958 205.0457 317.4642 00.95858716    01

# Worst residual: 175.06 km
# MJD 60593.000000 (2024 Oct 10  0:00)
A118n8v = A1188rT = A1188rU
1 79918U 24999ZZG 24284.49919926  .00000000  00000-0  00000-0 0 24454
2 79918 020.1908 331.8300 6516065 205.8279 301.3269 00.95783226    02

# Worst residual: 176.20 km
# MJD 60594.000000 (2024 Oct 11  0:00)
A118n8v = A1188rT = A1188rU
1 79918U 24999ZZG 24285.49919926  .00000000  00000-0  00000-0 0 24455
2 79918 020.1280 331.7095 6490487 206.6298 285.2197 00.95717824    05

# Worst residual: 154.69 km
# MJD 60595.000000 (2024 Oct 12  0:00)
A118n8v = A1188rT = A1188rU
1 79918U 24999ZZG 24286.49919926  .00000000  00000-0  00000-0 0 24456
2 79918 020.0744 331.6064 6463367 207.4255 269.1225 00.95650493    04

# Worst residual: 101.57 km
# MJD 60596.000000 (2024 Oct 13  0:00)
A118n8v = A1188rT = A1188rU
1 79918U 24999ZZG 24287.49919926  .00000000  00000-0  00000-0 0 24457
2 79918 020.0214 331.5012 6436437 208.2438 253.0049 00.95599250    07

# Worst residual: 63.47 km
# MJD 60597.000000 (2024 Oct 14  0:00)
A118n8v = A1188rT = A1188rU
1 79918U 24999ZZG 24288.49919926  .00000000  00000-0  00000-0 0 24458
2 79918 019.9693 331.3942 6407889 209.0736 236.8881 00.95551707    02

# Worst residual: 52.70 km
# MJD 60598.000000 (2024 Oct 15  0:00)
A118n8v = A1188rT = A1188rU
1 79918U 24999ZZG 24289.49919926  .00000000  00000-0  00000-0 0 24459
2 79918 019.9180 331.2817 6378408 209.9424 220.7232 00.95510296    00

# Worst residual: 59.65 km
# MJD 60599.000000 (2024 Oct 16  0:00)
A118n8v = A1188rT = A1188rU
1 79918U 24999ZZG 24290.49919926  .00000000  00000-0  00000-0 0 24451
2 79918 019.8668 331.1641 6352067 210.8370 204.5413 00.95506861    02

# Worst residual: 68.01 km
# MJD 60600.000000 (2024 Oct 17  0:00)
A118n8v = A1188rT = A1188rU
1 79918U 24999ZZG 24291.49919926  .00000000  00000-0  00000-0 0 24452
2 79918 019.8179 331.0582 6326506 211.7217 188.3703 00.95536731    01

# Worst residual: 107.52 km
# MJD 60601.000000 (2024 Oct 18  0:00)
A118n8v = A1188rT = A1188rU
1 79918U 24999ZZG 24292.49919926  .00000000  00000-0  00000-0 0 24453
2 79918 019.7742 330.9340 6304935 212.6158 172.2032 00.95609647    06

# Worst residual: 152.35 km
# MJD 60602.000000 (2024 Oct 19  0:00)
A118n8v = A1188rT = A1188rU
1 79918U 24999ZZG 24293.49919926  .00000000  00000-0  00000-0 0 24454
2 79918 019.7360 330.8325 6285039 213.4565 156.0837 00.95691110    07

# Worst residual: 156.70 km
# MJD 60603.000000 (2024 Oct 20  0:00)
A118n8v = A1188rT = A1188rU
1 79918U 24999ZZG 24294.49919926  .00000000  00000-0  00000-0 0 24455
2 79918 019.7002 330.7706 6261301 214.2293 139.9943 00.95760036    07

# Worst residual: 163.31 km
# MJD 60604.000000 (2024 Oct 21  0:00)
A118n8v = A1188rT = A1188rU
1 79918U 24999ZZG 24295.49919926  .00000000  00000-0  00000-0 0 24456
2 79918 019.6711 330.6203 6236874 215.0994 123.8504 00.95810359    07

# Worst residual: 160.49 km
# MJD 60605.000000 (2024 Oct 22  0:00)
A118n8v = A1188rT = A1188rU
1 79918U 24999ZZG 24296.49919926  .00000000  00000-0  00000-0 0 24457
2 79918 019.6334 330.5416 6209932 215.8780 107.6653 00.95870259    09
